ION SCV-012             
1 60573U 24149DK  26138.18195655  .00000275  00000+0  30373-4 0  9994
2 60573  97.6785 212.8340 0003584 158.2457 201.8916 14.94868084 95437
GNOMES-5                
1 60574U 24149DL  26138.16793586  .00003209  00000+0  25656-3 0  9997
2 60574  97.6993 216.4989 0006332 221.0647 139.0101 15.00915079 95659
HAWK-10C                
1 60575U 24149DM  26138.14702713  .00001289  00000+0  11879-3 0  9996
2 60575  97.6735 213.3307 0004290 140.8749 219.2783 14.96409088 95497
LEMUR-2-AHMED-ASRAR     
1 60576U 24149DN  26138.18988028  .00007280  00000+0  42821-3 0  9994
2 60576  97.7000 222.9276 0003469 106.9313 253.2297 15.11959743 96037
LEMUR-2-LLOYD           
1 60577U 24149DP  26137.67011958  .00005905  00000+0  38171-3 0  9992
2 60577  97.6748 218.7987 0002643 230.9489 129.1504 15.08593998 95799
LEMUR-2-SQUIRRELCOMM    
1 60578U 24149DQ  26138.17603678  .00004533  00000+0  30877-3 0  9996
2 60578  97.6709 219.1905 0006498 145.3264 214.8388 15.06765028 95889
LEMUR-2-SIERRINI        
1 60579U 24149DR  26138.14469612  .00007016  00000+0  43265-3 0  9996
2 60579  97.6841 220.6214 0003397 275.4584  84.6257 15.10255971 95921
SEDNA-1                 
1 60580U 24149DS  26138.19177207  .00003702  00000+0  25395-3 0  9991
2 60580  97.6628 218.8050 0010472  93.4563 266.7862 15.06593902 95873
STARLINK-31844          
1 60583U 24150A   26138.01805594 -.00001241  00000+0 -28211-4 0  9993
2 60583  53.1605 344.4550 0001616  94.7382 265.3804 15.31700393 98665
STARLINK-32204          
1 60584U 24150B   26137.56970618 -.00001619  00000+0 -36816-4 0  9992
2 60584  53.1603 346.6315 0000544  70.1046 290.0015 15.34381186 98590
STARLINK-32130          
1 60585U 24150C   26137.56797308 -.00001779  00000+0 -47971-4 0  9997
2 60585  53.1608 347.3280 0000945  92.7633 267.3476 15.30185100 98505
STARLINK-32173          
1 60586U 24150D   26137.99198500 -.00000441  00000+0 -19071-5 0  9990
2 60586  53.1548 344.2877 0001346  61.3345 298.7793 15.34393751 98669
STARLINK-31911          
1 60587U 24150E   26137.56551079 -.00003249  00000+0 -85137-4 0  9992
2 60587  53.1564 346.6073 0001175  46.4945 313.6155 15.34372362 98510
STARLINK-31994          
1 60588U 24150F   26137.98567387  .00000181  00000+0  16502-4 0  9998
2 60588  53.1597 344.2485 0001349  81.4509 278.6646 15.34391502 98585
STARLINK-32169          
1 60589U 24150G   26137.84083328 -.00000551  00000+0 -64928-5 0  9991
2 60589  53.1610 346.1894 0001124  77.1929 282.9197 15.30189866 98624
STARLINK-32209          
1 60590U 24150H   26137.86802508 -.00000234  00000+0  42187-5 0  9994
2 60590  53.1655 344.9366 0001452  75.7579 284.3585 15.34395428 98640
STARLINK-32170          
1 60591U 24150J   26137.96618459 -.00000290  00000+0  23378-5 0  9999
2 60591  53.1599 345.5475 0001217  90.0659 270.0481 15.30193295 98566
STARLINK-31497          
1 60592U 24150K   26137.29652755 -.00003855  00000+0 -10296-3 0  9997
2 60592  53.1629 347.7718 0002346 266.2368  93.8367 15.34406012 98554
STARLINK-32161          
1 60593U 24150L   26138.01092377 -.00000268  00000+0  31988-5 0  9994
2 60593  53.1606 344.4040 0001101  89.7747 270.3382 15.34389777 98589
STARLINK-32210          
1 60594U 24150M   26138.16668980 -.00006203  00000+0 -17732-3 0  9995
2 60594  53.1602 343.9465 0001208  79.5020 284.2152 15.33567620  5806
STARLINK-32202          
1 60595U 24150N   26138.02200507 -.00000829  00000+0 -15892-4 0  9992
2 60595  53.1613 345.1842 0001080 101.1291 258.9831 15.30188833 98651
STARLINK-31930          
1 60596U 24150P   26138.16668980 -.00014649  00000+0 -42295-3 0  9992
2 60596  53.1604 343.8833 0001252  60.3035 336.0159 15.34423282  5709
STARLINK-32162          
1 60597U 24150Q   26137.83872539 -.00001195  00000+0 -28252-4 0  9993
2 60597  53.1617 346.1756 0000850  85.0716 275.0382 15.30187036 98620
STARLINK-32208          
1 60598U 24150R   26137.84189007 -.00001201  00000+0 -28437-4 0  9999
2 60598  53.1610 346.1953 0001039  81.1794 278.9324 15.30192380 98622
STARLINK-32165          
1 60599U 24150S   26137.57113419 -.00001025  00000+0 -22491-4 0  9992
2 60599  53.1603 347.3470 0000974 110.0730 250.0376 15.30182972 98580
STARLINK-31923          
1 60600U 24150T   26138.01778407 -.00000342  00000+0  58105-6 0  9992
2 60600  53.1601 345.1584 0001341  95.4696 264.6458 15.30184992 98653
STARLINK-31988          
1 60601U 24150U   26137.83234982 -.00001193  00000+0 -24192-4 0  9990
2 60601  53.1590 345.4222 0001098 122.9607 237.1501 15.34383924 98553
STARLINK-31983          
1 60602U 24150V   26138.00461147  .00000258  00000+0  18776-4 0  9996
2 60602  53.1594 344.3664 0001631  85.1583 274.9606 15.34392348 98580
STARLINK-31874          
1 60603U 24150W   26138.01934461 -.00000472  00000+0 -28341-5 0  9992
2 60603  53.1600 344.4573 0001523 100.9462 259.1712 15.34385190 98660
STARLINK-32039          
1 60604U 24150X   26137.99522726  .00013101  00000+0  45467-3 0  9993
2 60604  53.1604 347.8583 0002425  82.3319 277.7957 15.30128951 98617
