OBJECT_NAME,OBJECT_ID,EPOCH,MEAN_MOTION,ECCENTRICITY,INCLINATION,RA_OF_ASC_NODE,ARG_OF_PERICENTER,MEAN_ANOMALY,EPHEMERIS_TYPE,CLASSIFICATION_TYPE,NORAD_CAT_ID,ELEMENT_SET_NO,REV_AT_EPOCH,BSTAR,MEAN_MOTION_DOT,MEAN_MOTION_DDOT
ION SCV-012,2024-149DK,2026-05-18T04:22:01.045920,14.94868084,.0003584,97.6785,212.8340,158.2457,201.8916,0,U,60573,999,9543,.30373E-4,.275E-5,0
GNOMES-5,2024-149DL,2026-05-18T04:01:49.658304,15.00915079,.0006332,97.6993,216.4989,221.0647,139.0101,0,U,60574,999,9565,.25656E-3,.3209E-4,0
HAWK-10C,2024-149DM,2026-05-18T03:31:43.144032,14.96409088,.000429,97.6735,213.3307,140.8749,219.2783,0,U,60575,999,9549,.11879E-3,.1289E-4,0
LEMUR-2-AHMED-ASRAR,2024-149DN,2026-05-18T04:33:25.656192,15.11959743,.0003469,97.7000,222.9276,106.9313,253.2297,0,U,60576,999,9603,.42821E-3,.728E-4,0
LEMUR-2-LLOYD,2024-149DP,2026-05-17T16:04:58.331712,15.08593998,.00026439,97.6748,218.7987,230.9489,129.1504,0,U,60577,999,9579,.38171008E-3,.5905E-4,0
LEMUR-2-SQUIRRELCOMM,2024-149DQ,2026-05-18T04:13:29.577792,15.06765028,.0006498,97.6709,219.1905,145.3264,214.8388,0,U,60578,999,9588,.30877E-3,.4533E-4,0
LEMUR-2-SIERRINI,2024-149DR,2026-05-18T03:28:21.744768,15.10255971,.0003397,97.6841,220.6214,275.4584,84.6257,0,U,60579,999,9592,.43265E-3,.7016E-4,0
SEDNA-1,2024-149DS,2026-05-18T04:36:09.106848,15.06593902,.0010472,97.6628,218.8050,93.4563,266.7862,0,U,60580,999,9587,.25395E-3,.3702E-4,0
STARLINK-31844,2024-150A,2026-05-18T00:26:00.033216,15.31700393,.0001616,53.1605,344.4550,94.7382,265.3804,0,U,60583,999,9866,-.28211E-4,-.1241E-4,0
STARLINK-32204,2024-150B,2026-05-17T13:40:22.613952,15.34381186,.0000544,53.1603,346.6315,70.1046,290.0015,0,U,60584,999,9859,-.36816E-4,-.1619E-4,0
STARLINK-32130,2024-150C,2026-05-17T13:37:52.874112,15.30185100,.0000945,53.1608,347.3280,92.7633,267.3476,0,U,60585,999,9850,-.47971E-4,-.1779E-4,0
STARLINK-32173,2024-150D,2026-05-17T23:48:27.504000,15.34393751,.0001346,53.1548,344.2877,61.3345,298.7793,0,U,60586,999,9866,-.19071E-5,-.441E-5,0
STARLINK-31911,2024-150E,2026-05-17T13:34:20.132256,15.34372362,.0001175,53.1564,346.6073,46.4945,313.6155,0,U,60587,999,9851,-.85137E-4,-.3249E-4,0
STARLINK-31994,2024-150F,2026-05-17T23:39:22.222368,15.34391502,.0001349,53.1597,344.2485,81.4509,278.6646,0,U,60588,999,9858,.16502E-4,.181E-5,0
STARLINK-32169,2024-150G,2026-05-17T20:10:47.995392,15.30189866,.00011249,53.1610,346.1894,77.1929,282.9197,0,U,60589,999,9862,-.6492764E-5,-.551E-5,0
STARLINK-32209,2024-150H,2026-05-17T20:49:57.366912,15.34395428,.00014522,53.1655,344.9366,75.7579,284.3585,0,U,60590,999,9864,.4218707E-5,-.234E-5,0
STARLINK-32170,2024-150J,2026-05-17T23:11:18.348576,15.30193295,.00012172,53.1599,345.5475,90.0659,270.0481,0,U,60591,999,9856,.2337814E-5,-.29E-5,0
STARLINK-31497,2024-150K,2026-05-17T07:06:59.980320,15.34406012,.00023461,53.1629,347.7718,266.2368,93.8367,0,U,60592,999,9855,-.10296386E-3,-.3855E-4,0
STARLINK-32161,2024-150L,2026-05-18T00:15:43.813728,15.34389777,.0001101,53.1606,344.4040,89.7747,270.3382,0,U,60593,999,9858,.31988E-5,-.268E-5,0
STARLINK-32210,2024-150M,2026-05-18T04:00:01.998720,15.33567620,.0001208,53.1602,343.9465,79.5020,284.2152,0,U,60594,999,580,-.17732E-3,-.6203E-4,0
STARLINK-32202,2024-150N,2026-05-18T00:31:41.238048,15.30188833,.000108,53.1613,345.1842,101.1291,258.9831,0,U,60595,999,9865,-.15892E-4,-.829E-5,0
STARLINK-31930,2024-150P,2026-05-18T04:00:01.998720,15.34423282,.0001252,53.1604,343.8833,60.3035,336.0159,0,U,60596,999,570,-.42295E-3,-.14649E-3,0
STARLINK-32162,2024-150Q,2026-05-17T20:07:45.873696,15.30187036,.00008509,53.1617,346.1756,85.0716,275.0382,0,U,60597,999,9862,-.28252331E-4,-.1195E-4,0
STARLINK-32208,2024-150R,2026-05-17T20:12:19.302048,15.30192380,.0001039,53.1610,346.1953,81.1794,278.9324,0,U,60598,999,9862,-.28436835E-4,-.1201E-4,0
STARLINK-32165,2024-150S,2026-05-17T13:42:25.994016,15.30182972,.0000974,53.1603,347.3470,110.0730,250.0376,0,U,60599,999,9858,-.22491E-4,-.1025E-4,0
STARLINK-31923,2024-150T,2026-05-18T00:25:36.543648,15.30184992,.0001341,53.1601,345.1584,95.4696,264.6458,0,U,60600,999,9865,.58105E-6,-.342E-5,0
STARLINK-31988,2024-150U,2026-05-17T19:58:35.024448,15.34383924,.00010981,53.1590,345.4222,122.9607,237.1501,0,U,60601,999,9855,-.24192349E-4,-.1193E-4,0
STARLINK-31983,2024-150V,2026-05-18T00:06:38.431008,15.34392348,.0001631,53.1594,344.3664,85.1583,274.9606,0,U,60602,999,9858,.18776E-4,.258E-5,0
STARLINK-31874,2024-150W,2026-05-18T00:27:51.374304,15.34385190,.0001523,53.1600,344.4573,100.9462,259.1712,0,U,60603,999,9866,-.28341E-5,-.472E-5,0
STARLINK-32039,2024-150X,2026-05-17T23:53:07.635264,15.30128951,.0002425,53.1604,347.8583,82.3319,277.7957,0,U,60604,999,9861,.45467E-3,.13101E-3,0
